[{"OBJECT_NAME":"STARLINK-34693","OBJECT_ID":"2025-150D","EPOCH":"2026-03-07T07:06:48.187584","MEAN_MOTION":14.98352696,"ECCENTRICITY":0.00033286,"INCLINATION":70.0019,"RA_OF_ASC_NODE":140.6753,"ARG_OF_PERICENTER":265.0001,"MEAN_ANOMALY":95.0778,"EPHEMERIS_TYPE":0,"CLASSIFICATION_TYPE":"U","NORAD_CAT_ID":64793,"ELEMENT_SET_NO":999,"REV_AT_EPOCH":3615,"BSTAR":0.00039478785,"MEAN_MOTION_DOT":4.623e-5,"MEAN_MOTION_DDOT":0},{"OBJECT_NAME":"STARLINK-34666","OBJECT_ID":"2025-150E","EPOCH":"2026-03-07T07:06:34.939008","MEAN_MOTION":14.9834672,"ECCENTRICITY":0.00038243,"INCLINATION":70.0022,"RA_OF_ASC_NODE":140.6819,"ARG_OF_PERICENTER":267.9896,"MEAN_ANOMALY":92.0825,"EPHEMERIS_TYPE":0,"CLASSIFICATION_TYPE":"U","NORAD_CAT_ID":64794,"ELEMENT_SET_NO":999,"REV_AT_EPOCH":3615,"BSTAR":0.0007442446,"MEAN_MOTION_DOT":8.803e-5,"MEAN_MOTION_DDOT":0},{"OBJECT_NAME":"STARLINK-34567","OBJECT_ID":"2025-150F","EPOCH":"2026-03-07T07:18:33.890688","MEAN_MOTION":14.98343524,"ECCENTRICITY":0.00034566,"INCLINATION":70.0018,"RA_OF_ASC_NODE":140.3069,"ARG_OF_PERICENTER":265.9728,"MEAN_ANOMALY":94.1036,"EPHEMERIS_TYPE":0,"CLASSIFICATION_TYPE":"U","NORAD_CAT_ID":64795,"ELEMENT_SET_NO":999,"REV_AT_EPOCH":3616,"BSTAR":0.00053977528,"MEAN_MOTION_DOT":6.356e-5,"MEAN_MOTION_DDOT":0},{"OBJECT_NAME":"STARLINK-34646","OBJECT_ID":"2025-150G","EPOCH":"2026-03-07T06:42:46.886976","MEAN_MOTION":14.98344355,"ECCENTRICITY":0.00032217,"INCLINATION":70.0023,"RA_OF_ASC_NODE":140.6162,"ARG_OF_PERICENTER":267.8115,"MEAN_ANOMALY":92.2676,"EPHEMERIS_TYPE":0,"CLASSIFICATION_TYPE":"U","NORAD_CAT_ID":64796,"ELEMENT_SET_NO":999,"REV_AT_EPOCH":3704,"BSTAR":0.00076478006,"MEAN_MOTION_DOT":9.048e-5,"MEAN_MOTION_DDOT":0},{"OBJECT_NAME":"STARLINK-34641","OBJECT_ID":"2025-150H","EPOCH":"2026-03-07T07:48:37.253952","MEAN_MOTION":14.98340087,"ECCENTRICITY":0.0003259,"INCLINATION":70.0016,"RA_OF_ASC_NODE":140.3789,"ARG_OF_PERICENTER":264.0279,"MEAN_ANOMALY":96.0508,"EPHEMERIS_TYPE":0,"CLASSIFICATION_TYPE":"U","NORAD_CAT_ID":64797,"ELEMENT_SET_NO":999,"REV_AT_EPOCH":3699,"BSTAR":0.0005144093,"MEAN_MOTION_DOT":6.052e-5,"MEAN_MOTION_DDOT":0},{"OBJECT_NAME":"STARLINK-34649","OBJECT_ID":"2025-150J","EPOCH":"2026-03-07T06:42:32.481504","MEAN_MOTION":14.98343748,"ECCENTRICITY":0.0003514,"INCLINATION":70.0021,"RA_OF_ASC_NODE":140.6238,"ARG_OF_PERICENTER":269.4395,"MEAN_ANOMALY":90.6362,"EPHEMERIS_TYPE":0,"CLASSIFICATION_TYPE":"U","NORAD_CAT_ID":64798,"ELEMENT_SET_NO":999,"REV_AT_EPOCH":3704,"BSTAR":0.00067769228,"MEAN_MOTION_DOT":8.005e-5,"MEAN_MOTION_DDOT":0},{"OBJECT_NAME":"STARLINK-34662","OBJECT_ID":"2025-150K","EPOCH":"2026-03-07T07:18:48.261600","MEAN_MOTION":14.98344392,"ECCENTRICITY":0.00033584,"INCLINATION":70.0016,"RA_OF_ASC_NODE":140.3089,"ARG_OF_PERICENTER":272.5256,"MEAN_ANOMALY":87.5519,"EPHEMERIS_TYPE":0,"CLASSIFICATION_TYPE":"U","NORAD_CAT_ID":64799,"ELEMENT_SET_NO":999,"REV_AT_EPOCH":3616,"BSTAR":0.00059236952,"MEAN_MOTION_DOT":6.985e-5,"MEAN_MOTION_DDOT":0},{"OBJECT_NAME":"STARLINK-34660","OBJECT_ID":"2025-150L","EPOCH":"2026-03-07T07:42:36.957312","MEAN_MOTION":14.98363636,"ECCENTRICITY":0.00038308,"INCLINATION":70.0013,"RA_OF_ASC_NODE":140.3653,"ARG_OF_PERICENTER":272.5783,"MEAN_ANOMALY":87.4938,"EPHEMERIS_TYPE":0,"CLASSIFICATION_TYPE":"U","NORAD_CAT_ID":64800,"ELEMENT_SET_NO":999,"REV_AT_EPOCH":3616,"BSTAR":0.00089637413,"MEAN_MOTION_DOT":0.00010628,"MEAN_MOTION_DDOT":0},{"OBJECT_NAME":"STARLINK-34604","OBJECT_ID":"2025-150M","EPOCH":"2026-03-07T06:24:30.429504","MEAN_MOTION":14.98341896,"ECCENTRICITY":0.00033753,"INCLINATION":70.0023,"RA_OF_ASC_NODE":140.5764,"ARG_OF_PERICENTER":266.2424,"MEAN_ANOMALY":93.8349,"EPHEMERIS_TYPE":0,"CLASSIFICATION_TYPE":"U","NORAD_CAT_ID":64801,"ELEMENT_SET_NO":999,"REV_AT_EPOCH":3615,"BSTAR":0.00047714507,"MEAN_MOTION_DOT":5.607e-5,"MEAN_MOTION_DDOT":0},{"OBJECT_NAME":"STARLINK-34658","OBJECT_ID":"2025-150N","EPOCH":"2026-03-07T07:00:34.359840","MEAN_MOTION":14.98345721,"ECCENTRICITY":0.0003318,"INCLINATION":70.0021,"RA_OF_ASC_NODE":140.6603,"ARG_OF_PERICENTER":273.1788,"MEAN_ANOMALY":86.8991,"EPHEMERIS_TYPE":0,"CLASSIFICATION_TYPE":"U","NORAD_CAT_ID":64802,"ELEMENT_SET_NO":999,"REV_AT_EPOCH":3615,"BSTAR":0.00067231355,"MEAN_MOTION_DOT":7.941e-5,"MEAN_MOTION_DDOT":0},{"OBJECT_NAME":"STARLINK-34620","OBJECT_ID":"2025-150P","EPOCH":"2026-03-07T07:00:48.464640","MEAN_MOTION":14.98342582,"ECCENTRICITY":0.00036709,"INCLINATION":70.0018,"RA_OF_ASC_NODE":140.6588,"ARG_OF_PERICENTER":267.4709,"MEAN_ANOMALY":92.603,"EPHEMERIS_TYPE":0,"CLASSIFICATION_TYPE":"U","NORAD_CAT_ID":64803,"ELEMENT_SET_NO":999,"REV_AT_EPOCH":3615,"BSTAR":0.00047085141,"MEAN_MOTION_DOT":5.532e-5,"MEAN_MOTION_DDOT":0},{"OBJECT_NAME":"STARLINK-34633","OBJECT_ID":"2025-150Q","EPOCH":"2026-03-07T07:54:51.486912","MEAN_MOTION":14.98326857,"ECCENTRICITY":0.00032547,"INCLINATION":70.001,"RA_OF_ASC_NODE":140.3886,"ARG_OF_PERICENTER":268.5367,"MEAN_ANOMALY":91.5419,"EPHEMERIS_TYPE":0,"CLASSIFICATION_TYPE":"U","NORAD_CAT_ID":64804,"ELEMENT_SET_NO":999,"REV_AT_EPOCH":3616,"BSTAR":0.00017362851,"MEAN_MOTION_DOT":1.979e-5,"MEAN_MOTION_DDOT":0},{"OBJECT_NAME":"STARLINK-34624","OBJECT_ID":"2025-150R","EPOCH":"2026-03-07T06:48:33.088320","MEAN_MOTION":14.98342455,"ECCENTRICITY":0.00037405,"INCLINATION":70.0017,"RA_OF_ASC_NODE":140.6342,"ARG_OF_PERICENTER":266.8479,"MEAN_ANOMALY":93.2252,"EPHEMERIS_TYPE":0,"CLASSIFICATION_TYPE":"U","NORAD_CAT_ID":64805,"ELEMENT_SET_NO":999,"REV_AT_EPOCH":3615,"BSTAR":0.00062428783,"MEAN_MOTION_DOT":7.366e-5,"MEAN_MOTION_DDOT":0},{"OBJECT_NAME":"STARLINK-34664","OBJECT_ID":"2025-150S","EPOCH":"2026-03-07T07:12:33.593184","MEAN_MOTION":14.98347628,"ECCENTRICITY":0.00032587,"INCLINATION":70.0018,"RA_OF_ASC_NODE":140.2896,"ARG_OF_PERICENTER":268.7124,"MEAN_ANOMALY":91.3662,"EPHEMERIS_TYPE":0,"CLASSIFICATION_TYPE":"U","NORAD_CAT_ID":64806,"ELEMENT_SET_NO":999,"REV_AT_EPOCH":3616,"BSTAR":0.00092247467,"MEAN_MOTION_DOT":0.00010936,"MEAN_MOTION_DDOT":0},{"OBJECT_NAME":"STARLINK-34663","OBJECT_ID":"2025-150T","EPOCH":"2026-03-07T06:30:31.205664","MEAN_MOTION":14.98346141,"ECCENTRICITY":0.00037773,"INCLINATION":70.0017,"RA_OF_ASC_NODE":140.5925,"ARG_OF_PERICENTER":272.7586,"MEAN_ANOMALY":87.3141,"EPHEMERIS_TYPE":0,"CLASSIFICATION_TYPE":"U","NORAD_CAT_ID":64807,"ELEMENT_SET_NO":999,"REV_AT_EPOCH":3615,"BSTAR":0.0008479577,"MEAN_MOTION_DOT":0.00010044,"MEAN_MOTION_DDOT":0},{"OBJECT_NAME":"STARLINK-34696","OBJECT_ID":"2025-150U","EPOCH":"2026-03-07T06:36:31.374432","MEAN_MOTION":14.98357174,"ECCENTRICITY":0.00037046,"INCLINATION":70.002,"RA_OF_ASC_NODE":140.6045,"ARG_OF_PERICENTER":270.421,"MEAN_ANOMALY":89.6524,"EPHEMERIS_TYPE":0,"CLASSIFICATION_TYPE":"U","NORAD_CAT_ID":64808,"ELEMENT_SET_NO":999,"REV_AT_EPOCH":3615,"BSTAR":0.0012081837,"MEAN_MOTION_DOT":0.00014363,"MEAN_MOTION_DDOT":0}]
