STARLINK-34693          
1 64793U 25150D   26066.29639106  .00004623  00000+0  39479-3 0  9997
2 64793  70.0019 140.6753 0003328 265.0001  95.0778 14.98352696 36158
STARLINK-34666          
1 64794U 25150E   26066.29623772  .00008803  00000+0  74424-3 0  9993
2 64794  70.0022 140.6819 0003824 267.9896  92.0825 14.98346720 36151
STARLINK-34567          
1 64795U 25150F   26066.30455892  .00006356  00000+0  53978-3 0  9994
2 64795  70.0018 140.3069 0003456 265.9728  94.1036 14.98343524 36161
STARLINK-34646          
1 64796U 25150G   26066.27970934  .00009048  00000+0  76478-3 0  9991
2 64796  70.0023 140.6162 0003221 267.8115  92.2676 14.98344355 37046
STARLINK-34641          
1 64797U 25150H   26066.32543118  .00006052  00000+0  51441-3 0  9993
2 64797  70.0016 140.3789 0003259 264.0279  96.0508 14.98340087 36999
STARLINK-34649          
1 64798U 25150J   26066.27954261  .00008005  00000+0  67769-3 0  9993
2 64798  70.0021 140.6238 0003514 269.4395  90.6362 14.98343748 37042
STARLINK-34662          
1 64799U 25150K   26066.30472525  .00006985  00000+0  59237-3 0  9992
2 64799  70.0016 140.3089 0003358 272.5256  87.5519 14.98344392 36162
STARLINK-34660          
1 64800U 25150L   26066.32126108  .00010628  00000+0  89637-3 0  9996
2 64800  70.0013 140.3653 0003830 272.5783  87.4938 14.98363636 36165
STARLINK-34604          
1 64801U 25150M   26066.26701886  .00005607  00000+0  47715-3 0  9994
2 64801  70.0023 140.5764 0003375 266.2424  93.8349 14.98341896 36158
STARLINK-34658          
1 64802U 25150N   26066.29206435  .00007941  00000+0  67231-3 0  9996
2 64802  70.0021 140.6603 0003318 273.1788  86.8991 14.98345721 36153
STARLINK-34620          
1 64803U 25150P   26066.29222760  .00005532  00000+0  47085-3 0  9995
2 64803  70.0018 140.6588 0003670 267.4709  92.6030 14.98342582 36153
STARLINK-34633          
1 64804U 25150Q   26066.32976258  .00001979  00000+0  17363-3 0  9995
2 64804  70.0010 140.3886 0003254 268.5367  91.5419 14.98326857 36161
STARLINK-34624          
1 64805U 25150R   26066.28371630  .00007366  00000+0  62429-3 0  9993
2 64805  70.0017 140.6342 0003740 266.8479  93.2252 14.98342455 36159
STARLINK-34664          
1 64806U 25150S   26066.30038881  .00010936  00000+0  92247-3 0  9993
2 64806  70.0018 140.2896 0003258 268.7124  91.3662 14.98347628 36165
STARLINK-34663          
1 64807U 25150T   26066.27119451  .00010044  00000+0  84796-3 0  9993
2 64807  70.0017 140.5925 0003777 272.7586  87.3141 14.98346141 36159
STARLINK-34696          
1 64808U 25150U   26066.27536313  .00014363  00000+0  12082-2 0  9990
2 64808  70.0020 140.6045 0003704 270.4210  89.6524 14.98357174 36155
